{"fetched_at":"2026-03-29T16:36:15Z","count":15609,"tles":[{"name":"STARLINK-30485","line1":"1 57920U 23147H   26087.75681409 -.00000691  00000+0 -16072-4 0  9990","line2":"2 57920  43.0041 217.5640 0001619 260.8749  99.1919 15.26746196139542","category":"Starlink"}]}